C/2019 B3 (PANSTARRS),h,01/19.6908/2021,66.5361,358.4205,263.8851,1.002903,6.823839,2000,5.5,4.0
# From MPEC 2020-AA5
A/2019 C1,e,36.0173,212.3959,319.1941,819.6565,0.0000420,0.99197077,0.0000,05/05.7611/2020,2000,g 10.0,4.0
# From MPC118842
C/2019 D1 (Flewelling),e,34.0940,231.7197,70.4942,139.5884,0.0005976,0.98869590,0.0000,05/11.8667/2019,2000,g 13.0,4.0
# From MPC119997
C/2019 E3 (ATLAS),h,11/11.8260/2023,84.2826,347.2272,280.5910,1.004792,10.315813,2000,2.5,4.0
# From MPC119997
C/2019 F1 (ATLAS-Africano),h,06/22.7516/2021,54.1744,38.7259,251.1051,1.003453,3.596147,2000,5.5,4.0
# From MPC119997
C/2019 F2 (ATLAS),e,19.1869,175.8470,11.0098,16.61421,0.0145541,0.86557494,3.7697,05/25.0/2020,2000,g 12.0,4.0
# From MPEC 2020-AA5
A/2019 G2,e,159.2110,208.1476,82.6515,723.6979,0.0000506,0.99683391,0.0000,12/10.0531/2019,2000,g 16.5,2.0
# From MPC118094
A/2019 G4,h,09/15.8341/2018,138.3844,130.4651,287.8818,1.000874,5.858839,2000,13.0,2.0
# From MPC114607
P/2019 GG21 (PANSTARRS),e,6.0837,340.5965,208.3801,7.467701,0.0482974,0.47295150,18.3873,05/25.0/2020,2000,g 12.0,4.0
# From MPC115885
C/2019 H1 (NEOWISE),e,104.5788,269.1861,19.2957,228.6815,0.0002850,0.99193111,0.0000,04/27.7479/2019,2000,g 15.5,4.0
# From MPC118842
C/2019 J1 (Lemmon),e,24.5504,98.0873,167.7779,70.10018,0.0016793,0.96464136,0.6915,05/25.0/2020,2000,g 12.0,4.0
# From MPC115885
C/2019 J2 (Palomar),e,105.1365,25.4716,98.7090,680.4774,0.0000555,0.99746197,0.0000,07/19.7151/2019,2000,g 13.0,4.0
# From MPC117071
C/2019 J3 (ATLAS),e,131.4138,270.5175,16.5542,50422,0.0000001,0.99995292,0.0000,08/01.8818/2019,2000,g 13.5,4.0
# From MPC117071
C/2019 JU6 (ATLAS),e,148.2942,21.7368,94.8741,328.2856,0.0001657,0.99377043,0.0000,05/31.8599/2019,2000,g 14.5,4.0
# From MPC119997
C/2019 K1 (ATLAS),e,87.1495,73.3751,265.7082,16099,0.0000005,0.99987498,0.0000,02/12.9672/2020,2000,g 10.0,4.0
# From MPC119997
C/2019 K4 (Ye),e,105.3035,180.1650,139.7736,1910,0.0000118,0.99881728,0.0000,06/16.4001/2019,2000,g 12.5,4.0
# From MPC119997
C/2019 K5 (Young),e,15.3145,177.1795,174.9339,154.1940,0.0005148,0.98680157,0.0000,06/22.7860/2019,2000,g 13.0,4.0
# From MPC117071
A/2019 K6,e,132.3734,42.9399,187.6154,1514,0.0000167,0.99740511,0.0000,05/20.1712/2020,2000,g 13.6,2.0
# From MPC118095
C/2019 K7 (Smith),h,06/16.9017/2020,103.5306,307.9238,27.2920,1.001481,4.474931,2000,6.2,4.0
# From MPC119997
C/2019 K8 (ATLAS),e,93.2235,291.0443,85.3653,1771,0.0000132,0.99819606,0.0000,07/21.2901/2019,2000,g 11.5,4.0
# From MPC118095
C/2019 L1 (PANSTARRS),e,9.9934,254.4071,49.9325,9.833086,0.0319646,0.70605250,9.1960,05/25.0/2020,2000,g 13.5,4.0
# From MPC115886
C/2019 L2 (NEOWISE),e,152.1792,12.5866,18.7446,24.90542,0.0079298,0.93496674,3.3234,05/25.0/2020,2000,g 16.0,4.0
# From MPC119997
C/2019 L3 (ATLAS),h,01/09.8543/2022,48.3663,290.7836,171.6616,1.000502,3.553246,2000,4.5,4.0
# From MPC118095
C/2019 LB7 (Kleyna),e,164.2491,3.3994,336.0949,35.49490,0.0046607,0.92998270,1.9787,05/25.0/2020,2000,g 17.0,4.0
# From MPC118843
P/2019 M2 (ATLAS),e,12.2820,307.5979,332.5415,3.025853,0.1872546,0.64847221,63.1666,05/25.0/2020,2000,g 21.2,4.0
# From MPC118095
C/2019 M3 (ATLAS),h,01/02.9860/2019,99.4434,154.8958,87.9427,1.001888,2.418424,2000,12.2,4.0
# From MPC119997
C/2019 N1 (ATLAS),e,82.4250,13.5752,193.4458,21679,0.0000003,0.99992137,0.0000,12/01.7908/2020,2000,g  7.5,4.0
# From MPEC 2020-AA5
A/2019 O2,e,93.2861,48.3364,129.6621,57.45180,0.0022633,0.83147764,357.6291,05/25.0/2020,2000,g  9.5,2.0
# From MPC118843
A/2019 O3,h,03/07.4418/2021,89.8125,300.3790,60.0228,1.001555,8.818933,2000,10.0,2.0
# From MPC117072
A/2019 O4,e,115.0855,354.9204,61.8126,32.85496,0.0052336,0.88907357,0.5497,05/25.0/2020,2000,g 15.5,2.0
# From MPEC 2020-AA5
A/2019 Q1,h,07/19.7785/2020,155.7199,42.3363,55.9301,1.000387,4.996687,2000,12.5,2.0
# From MPC117072
A/2019 Q2,e,159.0231,188.0215,176.3015,58.01149,0.0022307,0.97832949,0.0000,07/22.3765/2019,2000,g 18.0,2.0
# From MPC117072
C/2019 Q3 (PANSTARRS),h,08/21.0626/2018,65.5298,151.3247,152.6492,1.004530,7.251274,2000,8.5,4.0
# From MPC117072
P/2019 S2 (PANSTARRS),e,10.4732,93.1261,216.7632,4.734663,0.0956688,0.20680367,43.9150,05/25.0/2020,2000,g 13.5,4.0
# From MPC118096
P/2019 S3 (PANSTARRS),e,8.6927,150.1646,212.9662,3.414063,0.1562416,0.47078342,42.6338,05/25.0/2020,2000,g 18.3,4.0
# From MPEC 2020-AA5
A/2019 S4,e,92.0236,63.1673,71.3574,237.8056,0.0002688,0.98552747,0.0000,04/07.9524/2020,2000,g 14.5,2.0
# From MPC118843
A/2019 T1,e,120.8686,6.9495,91.0023,38.22338,0.0041707,0.88797733,359.0236,05/25.0/2020,2000,g 13.0,2.0
# From MPEC 2020-AA5
A/2019 T2,e,111.4656,155.6391,239.3936,2031,0.0000108,0.99869733,0.0000,04/22.3070/2021,2000,g 12.5,2.0
# From MPC119998
C/2019 T3 (ATLAS),e,121.8626,139.5166,112.2568,8560,0.0000012,0.99930529,0.0000,03/02.4614/2021,2000,g  6.8,4.0
# From MPC119998
C/2019 T4 (ATLAS),e,53.6164,199.9739,351.2114,1028,0.0000299,0.99587218,0.0000,06/09.3543/2022,2000,g  5.0,4.0
# From MPC119998
P/2019 T5 (ATLAS),e,33.4228,247.6954,189.6114,8.013924,0.0434446,0.80923537,12.9409,05/25.0/2020,2000,g 15.0,4.0
# From MPC119998
P/2019 T6 (PANSTARRS),e,18.6963,71.3105,328.9068,5.433105,0.0778273,0.62234210,15.5065,05/25.0/2020,2000,g 15.5,4.0
# From MPC118096
P/2019 U4 (PANSTARRS),e,11.6906,200.0341,180.9579,3.520135,0.1492331,0.47531437,37.2553,05/25.0/2020,2000,g 19.0,4.0
# From MPC118844
A/2019 U5,h,03/30.4462/2023,113.5267,2.6976,181.6180,1.000407,3.620970,2000,10.0,2.0
# From MPEC 2020-AA5
A/2019 U6,e,61.0016,235.7059,329.6602,433.1617,0.0001093,0.99788934,0.0000,06/18.8228/2020,2000,g 14.5,2.0
# From MPC119998
C/2019 V1 (Borisov),e,61.8640,83.2060,51.1983,2425,0.0000083,0.99872288,0.0000,07/16.5702/2020,2000,g 11.0,4.0
# From MPC119998
P/2019 V2 (Groeller),e,11.8028,189.1676,336.3646,7.517467,0.0478186,0.33268551,352.7785,05/25.0/2020,2000,g 10.0,4.0
# From MPC119998
P/2019 W1 (PANSTARRS),e,23.4601,35.4168,18.7242,4.550424,0.1015375,0.26611220,38.9048,05/25.0/2020,2000,g 12.9,4.0
# From MPC119998
P/2019 X1 (Pruyne),e,10.2448,43.7156,36.6268,6.177424,0.0641938,0.30337463,19.8993,05/25.0/2020,2000,g 10.4,4.0
# From MPC xxxxx
C/2019 Y1 (ATLAS),e,73.3484,31.3659,57.4980,232.7956,0.0002775,0.99640105,0.0000,03/15.5623/2020,2000,g 14.5,4.0
# From MPC119999
P/2019 Y2 (Fuls),e,4.9020,81.0806,91.7269,3.528639,0.1486939,0.39614157,17.1540,05/25.0/2020,2000,g 13.2,4.0
# From MPEC 2020-C98
P/2019 Y3 (Catalina),e,24.6355,139.3798,2.2803,2.998376,0.1898344,0.69579333,31.0449,05/25.0/2020,2000,g 18.5,4.0
# From MPEC 2020-HN5
C/2019 Y4 (ATLAS),e,45.3801,120.5684,177.4114,323.9202,0.0001691,0.99921942,0.0000,05/31.0173/2020,2000,g 12.0,4.0
# From MPEC 2020-HN5
C/2019 Y4-A (ATLAS),h,05/31.0498/2020,46.2387,121.2272,177.0816,1.003866,0.249299,2000,12.0,6.0
# From MPEC 2020-HN5
C/2019 Y4-B (ATLAS),e,45.3119,120.5318,177.4349,184.7831,0.0003924,0.99862987,0.0000,05/31.0206/2020,2000,g 12.0,6.0
# From MPEC 2020-HN5
C/2019 Y4-C (ATLAS),e,43.9003,119.6341,178.0585,20.04240,0.0109845,0.98705855,0.0000,05/31.0496/2020,2000,g 12.5,6.0
# From MPEC 2020-HN5
C/2019 Y4-D (ATLAS),e,45.3859,121.0038,177.5802,31.96271,0.0054543,0.99210487,0.0000,05/31.1548/2020,2000,g 14.0,6.0
# From MPEC 2020-HN5
A/2019 Y5,e,82.8353,51.7766,303.5018,800.8940,0.0000435,0.99386374,0.0000,08/18.1771/2019,2000,g 14.0,2.0
# From MPEC 2020-HN5
A/2020 A1,e,149.0483,119.2787,302.7144,25.96175,0.0074508,0.93563181,1.2981,05/25.0/2020,2000,g 18.0,2.0
# From MPEC 2020-HN5
C/2020 A2 (Iwamoto),e,120.7506,286.3790,68.2117,1120,0.0000263,0.99912653,0.0000,01/08.3236/2020,2000,g 13.5,4.0
# From MPEC 2020-HN5
C/2020 A3 (ATLAS),h,06/29.6236/2019,146.7025,120.7810,268.4749,1.000267,5.768752,2000,8.0,4.0
# From MPEC 2020-HN5
A/2020 B1,e,18.5123,310.0346,154.7858,52.11870,0.0026195,0.96646797,0.3957,05/25.0/2020,2000,g 21.0,2.0
# From MPEC 2020-HN5
C/2020 B2 (Lemmon),e,55.7378,354.3208,143.7577,69.59657,0.0016975,0.96021116,0.2025,05/25.0/2020,2000,g 10.0,4.0
# From MPEC 2020-HN5
C/2020 B3 (Rankin),e,20.7032,185.8247,325.0904,1798,0.0000129,0.99813958,0.0000,10/19.8708/2019,2000,g 13.0,4.0
# From MPEC 2020-HN5
C/2020 F2 (ATLAS),h,07/16.7971/2022,163.5731,250.2490,48.3723,1.001836,8.817083,2000,4.5,4.0
# From MPEC 2020-HN5
C/2020 F3 (NEOWISE),e,128.9369,61.0137,37.2655,384.3969,0.0001308,0.99923302,0.0000,07/03.6862/2020,2000,g 12.5,3.2
# From MPEC 2020-HN5
C/2020 F5 (MASTER),h,03/24.7883/2021,51.7221,350.7889,311.1560,1.011790,4.321625,2000,6.5,3.2
# From MPEC 2020-HN5
C/2020 F6 (PANSTARRS),e,174.5813,207.8802,344.5928,377.8502,0.0001342,0.99070792,0.0000,04/11.5719/2020,2000,g 14.5,2.8
# From MPEC 2020-HN5
A/2020 F7,e,93.9451,321.8865,228.0027,796.0641,0.0000439,0.99330339,0.0000,11/14.1898/2021,2000,g 12.0,2.0
# From MPC xxxxx
C/2020 F8 (SWAN),e,110.7969,260.0085,68.2239,272.0421,0.0002197,0.99841786,0.0000,05/27.5655/2020,2000,g 10.0,4.0
# From MPEC 2020-HN5
P/2020 G1 (Pimentel),e,18.4673,240.1147,207.6292,3.591516,0.1448063,0.85918808,9.9337,05/25.0/2020,2000,g 17.0,4.0
# From MPEC 2020-HN5
C/2020 H2 (Pruyne),h,04/27.6343/2020,125.0448,277.7005,26.7971,1.001869,0.833771,2000,18.0,4.0
# From MPEC 2020-HM1
C/2020 H3 (Wierzchos),p,06/05.7162/2020,62.5292,30.4456,2.300288,270.6227,2000,13.5,4.0
# From MPC xxxxx
C/2020 H4 (Leonard),e,84.5607,307.7645,117.4815,60.83621,0.0020771,0.98475471,0.0000,08/29.2747/2020,2000,g 14.5,4.0
# From MPC xxxxx
C/2020 H5 (Robinson),e,69.9504,210.9167,317.5989,155.6425,0.0005076,0.93962274,359.9996,06/15.0/2020,2000,g  5.0,4.0
# From MPC xxxxx
C/2020 H6 (ATLAS),p,10/01.2940/2021,79.8308,20.5303,4.689084,213.8053,2000,7.0,4.0
# From MPEC 2020-FB7
C/2020 H7 (Lemmon),e,135.9235,323.5194,82.6780,1405,0.0000187,0.99685380,0.0000,06/02.9510/2020,2000,g 11.0,4.0
# From MPEC 2020-FB7
C/2020 H8 (PANSTARRS),p,06/06.7207/2020,99.7116,129.2192,4.678446,68.3225,2000,10.5,4.0
# From MPEC 2020-J37
C/2020 J1 (SONEAR),p,04/15.7308/2021,142.1690,344.4493,3.256464,227.8566,2000,7.0,4.0
# From MPEC 2020-FB7
C/2020 K1 (PANSTARRS),p,05/08.6840/2023,89.6421,213.8786,3.078872,94.4049,2000,5.5,4.0
